{"type": "FeatureCollection", "features": [ {"type": "Feature", "properties": {"norad_id": 17070, "name": "POLAR BEAR", "group": "nnss", "lat": -81.66126128498757, "lon": 5.807590325361064, "alt_km": 1018.5196791915296, "timestamp": "2025-12-27T06:41:31.195113+00:00", "meta": {"OBJECT_NAME": "POLAR BEAR", "OBJECT_ID": "1986-088A", "EPOCH": "2025-12-26T22:59:32.643744", "MEAN_MOTION": 13.75253789, "ECCENTRICITY": 0.00412519, "INCLINATION": 89.6169, "RA_OF_ASC_NODE": 183.2043, "ARG_OF_PERICENTER": 78.4022, "MEAN_ANOMALY": 35.9171, "EPHEMERIS_TYPE": 0, "CLASSIFICATION_TYPE": "U", "NORAD_CAT_ID": 17070, "ELEMENT_SET_NO": 999, "REV_AT_EPOCH": 96174, "BSTAR": 0.00011929239, "MEAN_MOTION_DOT": 1.27e-06, "MEAN_MOTION_DDOT": 0}, "tle": {"line1": "1 17070U 86088A   25360.95801671  .00000127  00000+0  11929-3 0  9992", "line2": "2 17070  89.6169 183.2043 0041251  78.4022  35.9171 13.75253789961746"}}, "geometry": {"type": "Point", "coordinates": [5.807590325361064, -81.66126128498757]}}, {"type": "Feature", "properties": {"norad_id": 18361, "name": "OSCAR 27", "group": "nnss", "lat": 12.77844594146128, "lon": 79.7309723582002, "alt_km": 1168.5159291957225, "timestamp": "2025-12-27T06:41:31.195124+00:00", "meta": {"OBJECT_NAME": "OSCAR 27", "OBJECT_ID": "1987-080A", "EPOCH": "2025-12-26T10:59:09.175776", "MEAN_MOTION": 13.44909552, "ECCENTRICITY": 0.0104074, "INCLINATION": 90.3736, "RA_OF_ASC_NODE": 79.7851, "ARG_OF_PERICENTER": 184.3556, "MEAN_ANOMALY": 175.6696, "EPHEMERIS_TYPE": 0, "CLASSIFICATION_TYPE": "U", "NORAD_CAT_ID": 18361, "ELEMENT_SET_NO": 999, "REV_AT_EPOCH": 87741, "BSTAR": 0.00017189, "MEAN_MOTION_DOT": 1.13e-06, "MEAN_MOTION_DDOT": 0}, "tle": {"line1": "1 18361U 87080A   25360.45774509  .00000113  00000+0  17189-3 0  9992", "line2": "2 18361  90.3736  79.7851 0104074 184.3556 175.6696 13.44909552877413"}}, "geometry": {"type": "Point", "coordinates": [79.7309723582002, 12.77844594146128]}}, {"type": "Feature", "properties": {"norad_id": 18362, "name": "OSCAR 29", "group": "nnss", "lat": 1.7122269688221396, "lon": 80.26475568229235, "alt_km": 1167.3026129135133, "timestamp": "2025-12-27T06:41:31.195134+00:00", "meta": {"OBJECT_NAME": "OSCAR 29", "OBJECT_ID": "1987-080B", "EPOCH": "2025-12-26T11:05:26.932128", "MEAN_MOTION": 13.44450985, "ECCENTRICITY": 0.0104875, "INCLINATION": 90.3748, "RA_OF_ASC_NODE": 80.2454, "ARG_OF_PERICENTER": 207.474, "MEAN_ANOMALY": 163.2863, "EPHEMERIS_TYPE": 0, "CLASSIFICATION_TYPE": "U", "NORAD_CAT_ID": 18362, "ELEMENT_SET_NO": 999, "REV_AT_EPOCH": 87694, "BSTAR": 0.00015143, "MEAN_MOTION_DOT": 9.9e-07, "MEAN_MOTION_DDOT": 0}, "tle": {"line1": "1 18362U 87080B   25360.46211727  .00000099  00000+0  15143-3 0  9993", "line2": "2 18362  90.3748  80.2454 0104875 207.4740 163.2863 13.44450985876941"}}, "geometry": {"type": "Point", "coordinates": [80.26475568229235, 1.7122269688221396]}}, {"type": "Feature", "properties": {"norad_id": 19070, "name": "OSCAR 23", "group": "nnss", "lat": -15.246071916553875, "lon": 16.92992627489501, "alt_km": 1289.1813292653233, "timestamp": "2025-12-27T06:41:31.195144+00:00", "meta": {"OBJECT_NAME": "OSCAR 23", "OBJECT_ID": "1988-033A", "EPOCH": "2025-12-26T23:36:30.033216", "MEAN_MOTION": 13.27789415, "ECCENTRICITY": 0.0190608, "INCLINATION": 90.3203, "RA_OF_ASC_NODE": 16.8334, "ARG_OF_PERICENTER": 140.4271, "MEAN_ANOMALY": 235.3632, "EPHEMERIS_TYPE": 0, "CLASSIFICATION_TYPE": "U", "NORAD_CAT_ID": 19070, "ELEMENT_SET_NO": 999, "REV_AT_EPOCH": 82442, "BSTAR": 0.00016283465, "MEAN_MOTION_DOT": 9.1e-07, "MEAN_MOTION_DDOT": 0}, "tle": {"line1": "1 19070U 88033A   25360.98368094  .00000091  00000+0  16283-3 0  9994", "line2": "2 19070  90.3203  16.8334 0190608 140.4271 235.3632 13.27789415824425"}}, "geometry": {"type": "Point", "coordinates": [16.92992627489501, -15.246071916553875]}}, {"type": "Feature", "properties": {"norad_id": 19071, "name": "OSCAR 32", "group": "nnss", "lat": 75.95103389655004, "lon": -161.74180066298308, "alt_km": 1015.2402865852619, "timestamp": "2025-12-27T06:41:31.195155+00:00", "meta": {"OBJECT_NAME": "OSCAR 32", "OBJECT_ID": "1988-033B", "EPOCH": "2025-12-26T23:15:41.381280", "MEAN_MOTION": 13.27956058, "ECCENTRICITY": 0.01893372, "INCLINATION": 90.3208, "RA_OF_ASC_NODE": 16.9657, "ARG_OF_PERICENTER": 127.4039, "MEAN_ANOMALY": 298.1908, "EPHEMERIS_TYPE": 0, "CLASSIFICATION_TYPE": "U", "NORAD_CAT_ID": 19071, "ELEMENT_SET_NO": 999, "REV_AT_EPOCH": 82454, "BSTAR": 0.00015049572, "MEAN_MOTION_DOT": 8.5e-07, "MEAN_MOTION_DDOT": 0}, "tle": {"line1": "1 19071U 88033B   25360.96922895  .00000085  00000+0  15050-3 0  9992", "line2": "2 19071  90.3208  16.9657 0189337 127.4039 298.1908 13.27956058824549"}}, "geometry": {"type": "Point", "coordinates": [-161.74180066298308, 75.95103389655004]}}, {"type": "Feature", "properties": {"norad_id": 19223, "name": "NOVA 2", "group": "nnss", "lat": 40.000718303869014, "lon": 78.2654411265987, "alt_km": 1160.5047416059488, "timestamp": "2025-12-27T06:41:31.195165+00:00", "meta": {"OBJECT_NAME": "NOVA 2", "OBJECT_ID": "1988-052A", "EPOCH": "2025-12-27T00:06:20.818368", "MEAN_MOTION": 13.22937695, "ECCENTRICITY": 0.00293919, "INCLINATION": 89.9863, "RA_OF_ASC_NODE": 78.2543, "ARG_OF_PERICENTER": 337.2229, "MEAN_ANOMALY": 196.3416, "EPHEMERIS_TYPE": 0, "CLASSIFICATION_TYPE": "U", "NORAD_CAT_ID": 19223, "ELEMENT_SET_NO": 999, "REV_AT_EPOCH": 81136, "BSTAR": 0.00015014862, "MEAN_MOTION_DOT": 7.2e-07, "MEAN_MOTION_DDOT": 0}, "tle": {"line1": "1 19223U 88052A   25361.00440762  .00000072  00000+0  15015-3 0  9993", "line2": "2 19223  89.9863  78.2543 0029391 337.2229 196.3416 13.22937695811369"}}, "geometry": {"type": "Point", "coordinates": [78.2654411265987, 40.000718303869014]}}, {"type": "Feature", "properties": {"norad_id": 19419, "name": "OSCAR 25", "group": "nnss", "lat": 64.28749742695753, "lon": 20.22120455989173, "alt_km": 1147.2745221547284, "timestamp": "2025-12-27T06:41:31.195175+00:00", "meta": {"OBJECT_NAME": "OSCAR 25", "OBJECT_ID": "1988-074A", "EPOCH": "2025-12-26T13:18:28.068192", "MEAN_MOTION": 13.42625822, "ECCENTRICITY": 0.0095317, "INCLINATION": 90.0336, "RA_OF_ASC_NODE": 20.2886, "ARG_OF_PERICENTER": 205.9306, "MEAN_ANOMALY": 320.1104, "EPHEMERIS_TYPE": 0, "CLASSIFICATION_TYPE": "U", "NORAD_CAT_ID": 19419, "ELEMENT_SET_NO": 999, "REV_AT_EPOCH": 82825, "BSTAR": 0.00014338, "MEAN_MOTION_DOT": 9.2e-07, "MEAN_MOTION_DDOT": 0}, "tle": {"line1": "1 19419U 88074A   25360.55449153  .00000092  00000+0  14338-3 0  9995", "line2": "2 19419  90.0336  20.2886 0095317 205.9306 320.1104 13.42625822828254"}}, "geometry": {"type": "Point", "coordinates": [20.22120455989173, 64.28749742695753]}}, {"type": "Feature", "properties": {"norad_id": 19420, "name": "OSCAR 31", "group": "nnss", "lat": -52.27631783485641, "lon": 20.689026211098863, "alt_km": 1129.8460619506332, "timestamp": "2025-12-27T06:41:31.195185+00:00", "meta": {"OBJECT_NAME": "OSCAR 31", "OBJECT_ID": "1988-074B", "EPOCH": "2025-12-27T00:05:51.558144", "MEAN_MOTION": 13.42586905, "ECCENTRICITY": 0.00937594, "INCLINATION": 90.0353, "RA_OF_ASC_NODE": 20.6424, "ARG_OF_PERICENTER": 198.7875, "MEAN_ANOMALY": 220.7607, "EPHEMERIS_TYPE": 0, "CLASSIFICATION_TYPE": "U", "NORAD_CAT_ID": 19420, "ELEMENT_SET_NO": 999, "REV_AT_EPOCH": 82842, "BSTAR": 0.00012558635, "MEAN_MOTION_DOT": 8.2e-07, "MEAN_MOTION_DDOT": 0}, "tle": {"line1": "1 19420U 88074B   25361.00406896  .00000082  00000+0  12559-3 0  9997", "line2": "2 19420  90.0353  20.6424 0093759 198.7875 220.7607 13.42586905828425"}}, "geometry": {"type": "Point", "coordinates": [20.689026211098863, -52.27631783485641]}}]}